[{"OBJECT_NAME":"FLOCK 4G-18","OBJECT_ID":"2025-009BZ","EPOCH":"2026-04-05T12:09:24.164352","MEAN_MOTION":15.27979737,"ECCENTRICITY":0.00046916,"INCLINATION":97.4023,"RA_OF_ASC_NODE":177.6259,"ARG_OF_PERICENTER":211.2397,"MEAN_ANOMALY":148.8565,"EPHEMERIS_TYPE":0,"CLASSIFICATION_TYPE":"U","NORAD_CAT_ID":62680,"ELEMENT_SET_NO":999,"REV_AT_EPOCH":12543,"BSTAR":0.00049977614,"MEAN_MOTION_DOT":0.00013584,"MEAN_MOTION_DDOT":0},{"OBJECT_NAME":"FLOCK 4G-17","OBJECT_ID":"2025-009CA","EPOCH":"2026-04-05T11:31:26.002848","MEAN_MOTION":15.28098703,"ECCENTRICITY":0.00041199,"INCLINATION":97.3939,"RA_OF_ASC_NODE":177.3394,"ARG_OF_PERICENTER":213.9408,"MEAN_ANOMALY":146.1569,"EPHEMERIS_TYPE":0,"CLASSIFICATION_TYPE":"U","NORAD_CAT_ID":62681,"ELEMENT_SET_NO":999,"REV_AT_EPOCH":12544,"BSTAR":0.00059025107,"MEAN_MOTION_DOT":0.00016119,"MEAN_MOTION_DDOT":0},{"OBJECT_NAME":"FLOCK 4G-33","OBJECT_ID":"2025-009CE","EPOCH":"2026-04-05T11:33:20.553696","MEAN_MOTION":15.24611405,"ECCENTRICITY":0.00048715,"INCLINATION":97.396,"RA_OF_ASC_NODE":176.2308,"ARG_OF_PERICENTER":210.4531,"MEAN_ANOMALY":149.6424,"EPHEMERIS_TYPE":0,"CLASSIFICATION_TYPE":"U","NORAD_CAT_ID":62685,"ELEMENT_SET_NO":999,"REV_AT_EPOCH":6772,"BSTAR":0.00036755725,"MEAN_MOTION_DOT":9.001e-5,"MEAN_MOTION_DDOT":0},{"OBJECT_NAME":"PELICAN-3","OBJECT_ID":"2025-188A","EPOCH":"2026-04-05T04:12:37.536480","MEAN_MOTION":15.40665137,"ECCENTRICITY":0.00054923,"INCLINATION":97.22,"RA_OF_ASC_NODE":172.4106,"ARG_OF_PERICENTER":204.3225,"MEAN_ANOMALY":155.7764,"EPHEMERIS_TYPE":0,"CLASSIFICATION_TYPE":"U","NORAD_CAT_ID":65315,"ELEMENT_SET_NO":999,"REV_AT_EPOCH":3407,"BSTAR":0.00029621483,"MEAN_MOTION_DOT":0.00012007,"MEAN_MOTION_DDOT":0},{"OBJECT_NAME":"PELICAN-4","OBJECT_ID":"2025-188B","EPOCH":"2026-04-05T10:49:13.553184","MEAN_MOTION":15.40661204,"ECCENTRICITY":0.00046715,"INCLINATION":97.2277,"RA_OF_ASC_NODE":172.8047,"ARG_OF_PERICENTER":213.2217,"MEAN_ANOMALY":146.8737,"EPHEMERIS_TYPE":0,"CLASSIFICATION_TYPE":"U","NORAD_CAT_ID":65316,"ELEMENT_SET_NO":999,"REV_AT_EPOCH":3411,"BSTAR":0.00022418467,"MEAN_MOTION_DOT":9.062e-5,"MEAN_MOTION_DDOT":0},{"OBJECT_NAME":"PELICAN-5","OBJECT_ID":"2025-276B","EPOCH":"2026-04-05T11:42:13.766976","MEAN_MOTION":15.28185004,"ECCENTRICITY":0.00023528,"INCLINATION":97.4195,"RA_OF_ASC_NODE":170.7419,"ARG_OF_PERICENTER":230.752,"MEAN_ANOMALY":129.3511,"EPHEMERIS_TYPE":0,"CLASSIFICATION_TYPE":"U","NORAD_CAT_ID":66667,"ELEMENT_SET_NO":999,"REV_AT_EPOCH":1941,"BSTAR":0.00022999496,"MEAN_MOTION_DOT":6.243e-5,"MEAN_MOTION_DDOT":0},{"OBJECT_NAME":"PELICAN-6","OBJECT_ID":"2025-276AP","EPOCH":"2026-04-05T11:52:14.344608","MEAN_MOTION":15.28456329,"ECCENTRICITY":0.00027425,"INCLINATION":97.423,"RA_OF_ASC_NODE":170.8908,"ARG_OF_PERICENTER":91.9537,"MEAN_ANOMALY":268.2016,"EPHEMERIS_TYPE":0,"CLASSIFICATION_TYPE":"U","NORAD_CAT_ID":66703,"ELEMENT_SET_NO":999,"REV_AT_EPOCH":1942,"BSTAR":0.00025101775,"MEAN_MOTION_DOT":6.878e-5,"MEAN_MOTION_DDOT":0},{"OBJECT_NAME":"FLOCK 4H-1","OBJECT_ID":"2025-276AQ","EPOCH":"2026-04-05T10:38:24.684000","MEAN_MOTION":15.19758315,"ECCENTRICITY":0.00021022,"INCLINATION":97.4206,"RA_OF_ASC_NODE":170.3125,"ARG_OF_PERICENTER":169.354,"MEAN_ANOMALY":190.774,"EPHEMERIS_TYPE":0,"CLASSIFICATION_TYPE":"U","NORAD_CAT_ID":66704,"ELEMENT_SET_NO":999,"REV_AT_EPOCH":1938,"BSTAR":0.00037698315,"MEAN_MOTION_DOT":7.998e-5,"MEAN_MOTION_DDOT":0},{"OBJECT_NAME":"FLOCK 4H-2","OBJECT_ID":"2025-276AR","EPOCH":"2026-04-05T04:05:55.071456","MEAN_MOTION":15.19990617,"ECCENTRICITY":0.00014084,"INCLINATION":97.4203,"RA_OF_ASC_NODE":170.0592,"ARG_OF_PERICENTER":153.7169,"MEAN_ANOMALY":206.4138,"EPHEMERIS_TYPE":0,"CLASSIFICATION_TYPE":"U","NORAD_CAT_ID":66705,"ELEMENT_SET_NO":999,"REV_AT_EPOCH":1934,"BSTAR":0.00043944472,"MEAN_MOTION_DOT":9.399e-5,"MEAN_MOTION_DDOT":0},{"OBJECT_NAME":"FLOCK 4H-3","OBJECT_ID":"2025-276AS","EPOCH":"2026-04-05T05:37:27.630048","MEAN_MOTION":15.19117772,"ECCENTRICITY":0.0002755,"INCLINATION":97.4272,"RA_OF_ASC_NODE":170.0891,"ARG_OF_PERICENTER":242.3117,"MEAN_ANOMALY":117.7838,"EPHEMERIS_TYPE":0,"CLASSIFICATION_TYPE":"U","NORAD_CAT_ID":66706,"ELEMENT_SET_NO":999,"REV_AT_EPOCH":1934,"BSTAR":0.00042832,"MEAN_MOTION_DOT":8.93e-5,"MEAN_MOTION_DDOT":0},{"OBJECT_NAME":"FLOCK 4H-4","OBJECT_ID":"2025-276AT","EPOCH":"2026-04-05T10:51:58.883040","MEAN_MOTION":15.18885706,"ECCENTRICITY":0.00033415,"INCLINATION":97.4254,"RA_OF_ASC_NODE":170.2284,"ARG_OF_PERICENTER":245.1475,"MEAN_ANOMALY":114.9412,"EPHEMERIS_TYPE":0,"CLASSIFICATION_TYPE":"U","NORAD_CAT_ID":66707,"ELEMENT_SET_NO":999,"REV_AT_EPOCH":1937,"BSTAR":0.00040231585,"MEAN_MOTION_DOT":8.328e-5,"MEAN_MOTION_DDOT":0},{"OBJECT_NAME":"FLOCK 4H-5","OBJECT_ID":"2025-276AU","EPOCH":"2026-04-05T04:12:46.333728","MEAN_MOTION":15.19782116,"ECCENTRICITY":0.00013315,"INCLINATION":97.4207,"RA_OF_ASC_NODE":170.0637,"ARG_OF_PERICENTER":130.6206,"MEAN_ANOMALY":229.5144,"EPHEMERIS_TYPE":0,"CLASSIFICATION_TYPE":"U","NORAD_CAT_ID":66708,"ELEMENT_SET_NO":999,"REV_AT_EPOCH":1934,"BSTAR":0.00039723261,"MEAN_MOTION_DOT":8.438e-5,"MEAN_MOTION_DDOT":0},{"OBJECT_NAME":"FLOCK 4H-6","OBJECT_ID":"2025-276AV","EPOCH":"2026-04-05T04:48:23.620896","MEAN_MOTION":15.19456834,"ECCENTRICITY":0.00025996,"INCLINATION":97.4259,"RA_OF_ASC_NODE":170.1139,"ARG_OF_PERICENTER":197.5802,"MEAN_ANOMALY":162.5343,"EPHEMERIS_TYPE":0,"CLASSIFICATION_TYPE":"U","NORAD_CAT_ID":66709,"ELEMENT_SET_NO":999,"REV_AT_EPOCH":1934,"BSTAR":0.00044232868,"MEAN_MOTION_DOT":9.316e-5,"MEAN_MOTION_DDOT":0},{"OBJECT_NAME":"FLOCK 4H-7","OBJECT_ID":"2025-276AW","EPOCH":"2026-04-05T03:58:37.768224","MEAN_MOTION":15.19194952,"ECCENTRICITY":8.533e-5,"INCLINATION":97.4215,"RA_OF_ASC_NODE":169.9303,"ARG_OF_PERICENTER":287.6627,"MEAN_ANOMALY":72.4514,"EPHEMERIS_TYPE":0,"CLASSIFICATION_TYPE":"U","NORAD_CAT_ID":66710,"ELEMENT_SET_NO":999,"REV_AT_EPOCH":1933,"BSTAR":0.00045412248,"MEAN_MOTION_DOT":9.494e-5,"MEAN_MOTION_DDOT":0},{"OBJECT_NAME":"FLOCK 4H-8","OBJECT_ID":"2025-276AX","EPOCH":"2026-04-05T05:28:58.059264","MEAN_MOTION":15.19266852,"ECCENTRICITY":0.000212,"INCLINATION":97.4255,"RA_OF_ASC_NODE":170.0749,"ARG_OF_PERICENTER":263.1405,"MEAN_ANOMALY":96.9589,"EPHEMERIS_TYPE":0,"CLASSIFICATION_TYPE":"U","NORAD_CAT_ID":66711,"ELEMENT_SET_NO":999,"REV_AT_EPOCH":1934,"BSTAR":0.00048705,"MEAN_MOTION_DOT":0.00010209,"MEAN_MOTION_DDOT":0},{"OBJECT_NAME":"FLOCK 4H-9","OBJECT_ID":"2025-276AY","EPOCH":"2026-04-05T11:01:47.156448","MEAN_MOTION":15.1958139,"ECCENTRICITY":0.0002554,"INCLINATION":97.4243,"RA_OF_ASC_NODE":170.3639,"ARG_OF_PERICENTER":207.0342,"MEAN_ANOMALY":153.076,"EPHEMERIS_TYPE":0,"CLASSIFICATION_TYPE":"U","NORAD_CAT_ID":66712,"ELEMENT_SET_NO":999,"REV_AT_EPOCH":1938,"BSTAR":0.00041799,"MEAN_MOTION_DOT":8.831e-5,"MEAN_MOTION_DDOT":0}]
